sat_config_name,tle_name,norad_id,horizons_id,epoch_tle,t_obs,delta_t_min,incl_deg,raan_deg,ecc,argp_deg,M_deg,mean_motion_rev_per_day,x_sgp4,y_sgp4,z_sgp4,vx_sgp4,vy_sgp4,vz_sgp4,x_true,y_true,z_true,vx_true,vy_true,vz_true,err_x,err_y,err_z,err_vx,err_vy,err_vz,err_norm,horizons_ok,line1,line2
CHANDRA,CXO,25867,-151,2025-11-29T09:28:09.054336+00:00,2025-11-29T15:48:09.054336+00:00,380.0,52.7584,123.0489,0.8164697,310.7158,0.2585,0.37803381,-35922.33548402441,-25235.432325844755,57817.75947302389,-0.2104299158924347,-1.8807212263627853,1.5704746959990423,-35901.35990309354,-25227.74214258061,57807.40894715401,-0.21086281798239795,-1.8811725926671465,1.5714383778969128,-20.97558093086991,-7.690183264145162,10.350525869886042,0.0004329020899632441,0.000451366304361267,-0.0009636818978704387,24.622089671812827,True,1 25867U 99040B   25333.39454924  .00000722  00000+0  00000+0 0  9995,2 25867  52.7584 123.0489 8164697 310.7158   0.2585  0.37803381 16565
CHANDRA,CXO,25867,-151,2025-11-29T09:28:09.054336+00:00,2025-11-29T15:53:09.054336+00:00,385.0,52.7584,123.0489,0.8164697,310.7158,0.2585,0.37803381,-35983.87056673429,-25798.67162552913,58286.5173822377,-0.19932797623929993,-1.8728383793076488,1.552543937348243,-35962.94728695236,-25790.911047200792,58276.14259678689,-0.19976236185165414,-1.8732904833852542,1.5535025933973847,-20.923279781927704,-7.760578328336123,10.374785450803756,0.0004343856123542045,0.0004521040776053198,-0.0009586560491416929,24.609883908163287,True,1 25867U 99040B   25333.39454924  .00000722  00000+0  00000+0 0  9995,2 25867  52.7584 123.0489 8164697 310.7158   0.2585  0.37803381 16565
CHANDRA,CXO,25867,-151,2025-11-29T09:28:09.054336+00:00,2025-11-29T15:58:09.054336+00:00,390.0,52.7584,123.0489,0.8164697,310.7158,0.2585,0.37803381,-36042.11175952017,-26359.547747367644,58749.93773487159,-0.18847715642943566,-1.8649772077912177,1.5349073428639781,-36021.24243249717,-26351.718606660324,58739.539938588016,-0.18891303698571918,-1.8654300308555152,1.535861112593992,-20.86932702299964,-7.829140707319311,10.397796283577918,0.00043588055628351885,0.00045282306429750285,-0.0009537697300139314,24.595495973098288,True,1 25867U 99040B   25333.39454924  .00000722  00000+0  00000+0 0  9995,2 25867  52.7584 123.0489 8164697 310.7158   0.2585  0.37803381 16565
CHANDRA,CXO,25867,-151,2025-11-29T09:28:09.054336+00:00,2025-11-29T16:03:09.054336+00:00,395.0,52.7584,123.0489,0.8164697,310.7158,0.2585,0.37803381,-36097.13313474149,-26918.067417237948,59208.10752385393,-0.17786883000133122,-1.8571390812910193,1.517556310433585,-36076.31935955146,-26910.171377147228,59197.68784012675,-0.1783062186001407,-1.857592607647841,1.5185053318651667,-20.813775190028537,-7.896040090719907,10.419683727173833,0.000437388598809485,0.0004535263568217207,-0.0009490214315817092,24.57906620987939,True,1 25867U 99040B   25333.39454924  .00000722  00000+0  00000+0 0  9995,2 25867  52.7584 123.0489 8164697 310.7158   0.2585  0.37803381 16565
CHANDRA,CXO,25867,-151,2025-11-29T09:28:09.054336+00:00,2025-11-29T16:08:09.054336+00:00,400.0,52.7584,123.0489,0.8164697,310.7158,0.2585,0.37803381,-36149.006235417044,-27474.237751068984,59661.11121218065,-0.16749476722152126,-1.8493252329768708,1.5004825814286906,-36128.24958341489,-27466.276531143834,59650.67082535965,-0.16793367436077528,-1.8497794467799038,1.5014269842764552,-20.756652002157352,-7.961219925149635,10.440386820999265,0.00043890713925401337,0.00045421380303301007,-0.0009444028477645361,24.560563959472866,True,1 25867U 99040B   25333.39454924  .00000722  00000+0  00000+0 0  9995,2 25867  52.7584 123.0489 8164697 310.7158   0.2585  0.37803381 16565
CHANDRA,CXO,25867,-151,2025-11-29T09:28:09.054336+00:00,2025-11-29T16:13:09.054336+00:00,405.0,52.7584,123.0489,0.8164697,310.7158,0.2585,0.37803381,-36197.80019088946,-28028.066215637697,60109.03083341667,-0.1573471124853725,-1.8415367709279256,1.4836782235927213,-36177.10220505969,-28020.041590392353,60098.57098498866,-0.1577875463001808,-1.8419916561210703,1.484618129735796,-20.697985829770914,-8.024625245343486,10.459848428006808,0.00044043381480829424,0.0004548851931447384,-0.0009399061430748201,24.539960408983507,True,1 25867U 99040B   25333.39454924  .00000722  00000+0  00000+0 0  9995,2 25867  52.7584 123.0489 8164697 310.7158   0.2585  0.37803381 16565
CHANDRA,CXO,25867,-151,2025-11-29T09:28:09.054336+00:00,2025-11-29T16:18:09.054336+00:00,410.0,52.7584,123.0489,0.8164697,310.7158,0.2585,0.37803381,-36243.58182592122,-28579.56059260543,60551.94608721267,-0.14741836324103227,-1.8337746883832609,1.467135614933243,-36222.944002559656,-28571.474169769222,60541.46789594504,-0.14786033365237783,-1.8342302317564945,1.4680711454294877,-20.63782336156146,-8.08642283620793,10.47819126763352,0.0004419704113455547,0.0004555433732336134,-0.0009355304962446187,24.51739137082223,True,1 25867U 99040B   25333.39454924  .00000722  00000+0  00000+0 0  9995,2 25867  52.7584 123.0489 8164697 310.7158   0.2585  0.37803381 16565
CHANDRA,CXO,25867,-151,2025-11-29T09:28:09.054336+00:00,2025-11-29T16:23:09.054336+00:00,415.0,52.7584,123.0489,0.8164697,310.7158,0.2585,0.37803381,-36286.4157636967,-29128.728945473144,60989.934430130466,-0.13770135032082756,-1.826039873116115,1.4508474285523938,-36265.839578842184,-29120.582462662293,60979.43913052227,-0.13814486373496726,-1.826496060078422,1.4517786949644413,-20.576184854515304,-8.146482810851012,10.495299608199275,0.00044351341413970125,0.0004561869623069814,-0.0009312664120475489,24.492771979107303,True,1 25867U 99040B   25333.39454924  .00000722  00000+0  00000+0 0  9995,2 25867  52.7584 123.0489 8164697 310.7158   0.2585  0.37803381 16565
CHANDRA,CXO,25867,-151,2025-11-29T09:28:09.054336+00:00,2025-11-29T16:28:09.054336+00:00,420.0,52.7584,123.0489,0.8164697,310.7158,0.2585,0.37803381,-36326.36452310521,-29675.579589244782,61423.071162048276,-0.1281892195702991,-1.818333116013139,1.4348066183534354,-36305.85140970959,-29667.374618928603,61412.55986753875,-0.12863428422242315,-1.818789934708925,1.4357337318197714,-20.51311339561653,-8.204970316179242,10.511294509524305,0.0004450646521240442,0.00045681869578584333,-0.0009271134663360048,24.466235332326068,True,1 25867U 99040B   25333.39454924  .00000722  00000+0  00000+0 0  9995,2 25867  52.7584 123.0489 8164697 310.7158   0.2585  0.37803381 16565
CHANDRA,CXO,25867,-151,2025-11-29T09:28:09.054336+00:00,2025-11-29T16:33:09.054336+00:00,425.0,52.7584,123.0489,0.8164697,310.7158,0.2585,0.37803381,-36363.48861069555,-30220.121062549504,61851.429508399655,-0.11887541467743273,-1.8106551189315312,1.419006405566027,-36343.03998183775,-30211.859306290833,61840.90344467364,-0.11932203554264482,-1.8111125560508208,1.41992946836459,-20.44862885780458,-8.261756258671085,10.5260637260144,0.0004466208652120912,0.0004574371192895832,-0.0009230627985630235,24.437697440758306,True,1 25867U 99040B   25333.39454924  .00000722  00000+0  00000+0 0  9995,2 25867  52.7584 123.0489 8164697 310.7158   0.2585  0.37803381 16565
CHANDRA,CXO,25867,-151,2025-11-29T09:28:09.054336+00:00,2025-11-29T16:38:09.054336+00:00,430.0,52.7584,123.0489,0.8164697,310.7158,0.2585,0.37803381,-36397.84660764717,-30762.36210202067,62275.080698484955,-0.10975366111189312,-1.803006501899743,1.4034402660368182,-36377.463836726354,-30754.04509777696,62264.54097185041,-0.11020184502576502,-1.8034645467605157,1.4043593803621595,-20.382770920812618,-8.317004243708652,10.539726634546241,0.0004481839138718996,0.00045804486077272166,-0.0009191143253413081,24.40728881975947,True,1 25867U 99040B   25333.39454924  .00000722  00000+0  00000+0 0  9995,2 25867  52.7584 123.0489 8164697 310.7158   0.2585  0.37803381 16565
CHANDRA,CXO,25867,-151,2025-11-29T09:28:09.054336+00:00,2025-11-29T16:43:09.054336+00:00,435.0,52.7584,123.0489,0.8164697,310.7158,0.2585,0.37803381,-36429.49525207356,-31302.311618747623,62694.09404007693,-0.10081795109143467,-1.795387809720976,1.388101918235952,-36409.17969297,-31293.94103327725,62683.541866215885,-0.10126770185357095,-1.79584645010725,1.389017177976012,-20.3155591035611,-8.370585470373044,10.552173861047777,0.0004497507621362834,0.00045864038627407844,-0.0009152597400601259,24.37492596913649,True,1 25867U 99040B   25333.39454924  .00000722  00000+0  00000+0 0  9995,2 25867  52.7584 123.0489 8164697 310.7158   0.2585  0.37803381 16565
CHANDRA,CXO,25867,-151,2025-11-29T09:28:09.054336+00:00,2025-11-29T16:48:09.054336+00:00,440.0,52.7584,123.0489,0.8164697,310.7158,0.2585,0.37803381,-36458.4895169535,-31839.978676629915,63108.53699052684,-0.09206252949991069,-1.7877995180328763,1.37298531193349,-36438.2424871245,-31831.556015091362,63097.973467864314,-0.09251385277697428,-1.7882587442518174,1.3738968111675869,-20.247029828999075,-8.422661538552347,10.56352266252361,0.00045132327706359776,0.00045922621894112226,-0.0009114992340968353,24.340736540438485,True,1 25867U 99040B   25333.39454924  .00000722  00000+0  00000+0 0  9995,2 25867  52.7584 123.0489 8164697 310.7158   0.2585  0.37803381 16565
CHANDRA,CXO,25867,-151,2025-11-29T09:28:09.054336+00:00,2025-11-29T16:53:09.054336+00:00,445.0,52.7584,123.0489,0.8164697,310.7158,0.2585,0.37803381,-36484.882683983,-32375.372472460676,63518.47522456899,-0.08348188068846031,-1.7802420388715157,1.358084617503009,-36464.70547822645,-32366.899295920426,63507.901502805405,-0.08393478045424738,-1.7807018406549409,1.358992444501661,-20.177205756546755,-8.473176540250279,10.573721763583308,0.00045289976578706537,0.0004598017834251955,-0.0009078269986519949,24.304689768806895,True,1 25867U 99040B   25333.39454924  .00000722  00000+0  00000+0 0  9995,2 25867  52.7584 123.0489 8164697 310.7158   0.2585  0.37803381 16565
